H1 CPF  1  DLR 2021 12 11 10  8452 technosat            
H2  1704205 6203    42829 2021 12 11 00 00 00 2021 12 18 00 00 00    60 1 1  0 0 0
H9
10 0 59565  50400.000000  0       -998274.277       5498342.451       4169330.421
10 0 59565  50460.000000  0       -946699.116       5767245.299       3801963.155
10 0 59565  50520.000000  0       -888893.678       6011388.129       3418472.378
10 0 59565  50580.000000  0       -825321.403       6229681.080       3020479.146
10 0 59565  50640.000000  0       -756479.423       6421147.479       2609667.597
10 0 59565  50700.000000  0       -682895.400       6584928.431       2187777.687
10 0 59565  50760.000000  0       -605124.258       6720286.965       1756597.811
10 0 59565  50820.000000  0       -523744.751       6826611.667       1317957.080
10 0 59565  50880.000000  0       -439355.876       6903419.673        873717.397
10 0 59565  50940.000000  0       -352573.168       6950359.081        425765.385
10 0 59565  51000.000000  0       -264024.903       6967210.779        -23995.858
10 0 59565  51060.000000  0       -174348.219       6953889.631       -473655.159
10 0 59565  51120.000000  0        -84185.163       6910444.920       -921301.748
10 0 59565  51180.000000  0          5821.244       6837060.062      -1365033.683
10 0 59565  51240.000000  0         95030.902       6734051.689      -1802966.171
10 0 59565  51300.000000  0        182810.515       6601868.107      -2233239.776
10 0 59565  51360.000000  0        268537.422       6441087.179      -2654028.499
10 0 59565  51420.000000  0        351603.383       6252413.583      -3063547.708
10 0 59565  51480.000000  0        431418.259       6036675.458      -3460061.857
10 0 59565  51540.000000  0        507413.586       5794820.453      -3841891.947
10 0 59565  51600.000000  0        579046.010       5527911.238      -4207422.691
10 0 59565  51660.000000  0        645800.563       5237120.482      -4555109.350
10 0 59565  51720.000000  0        707193.758       4923725.341      -4883484.208
10 0 59565  51780.000000  0        762776.509       4589101.527      -5191162.657
10 0 59565  51840.000000  0        812136.830       4234716.941      -5476848.901
10 0 59565  51900.000000  0        854902.290       3862124.951      -5739341.237
10 0 59565  51960.000000  0        890742.232       3472957.303      -5977536.926
10 0 59565  52020.000000  0        919369.757       3068916.719      -6190436.580
10 0 59565  52080.000000  0        940543.480       2651769.255      -6377148.075
10 0 59565  52140.000000  0        954068.998       2223336.452      -6536889.966
10 0 59565  52200.000000  0        959800.109       1785487.380      -6668994.512
10 0 59565  52260.000000  0        957639.744       1340130.437      -6772910.300
10 0 59565  52320.000000  0        947540.632        889204.998      -6848204.311
10 0 59565  52380.000000  0        929505.721        434673.041      -6894563.548
10 0 59565  52440.000000  0        903588.318        -21489.363      -6911796.233
10 0 59565  52500.000000  0        869891.908       -477300.608      -6899832.440
10 0 59565  52560.000000  0        828569.715       -930782.016      -6858724.255
10 0 59565  52620.000000  0        779824.027      -1379966.285      -6788645.520
10 0 59565  52680.000000  0        723905.237      -1822905.862      -6689891.105
10 0 59565  52740.000000  0        661110.647      -2257681.196      -6562875.832
10 0 59565  52800.000000  0        591782.995      -2682409.050      -6408133.007
10 0 59565  52860.000000  0        516308.661      -3095250.734      -6226312.345
10 0 59565  52920.000000  0        435115.648      -3494420.076      -6018177.343
10 0 59565  52980.000000  0        348671.368      -3878191.156      -5784602.259
10 0 59565  53040.000000  0        257480.200      -4244905.816      -5526568.679
10 0 59565  53100.000000  0        162080.802      -4592980.954      -5245161.649
10 0 59565  53160.000000  0         63043.194      -4920915.533      -4941565.349
10 0 59565  53220.000000  0        -39034.352      -5227297.271      -4617058.337
10 0 59565  53280.000000  0       -143528.621      -5510808.983      -4273008.344
10 0 59565  53340.000000  0       -249794.912      -5770234.521      -3910866.647
10 0 59565  53400.000000  0       -357170.656      -6004464.256      -3532162.061
10 0 59565  53460.000000  0       -464979.170      -6212500.104      -3138494.581
10 0 59565  53520.000000  0       -572533.530      -6393460.088      -2731528.703
10 0 59565  53580.000000  0       -679140.536      -6546582.427      -2312986.386
10 0 59565  53640.000000  0       -784104.735      -6671229.042      -1884639.672
10 0 59565  53700.000000  0       -886732.495      -6766888.453      -1448303.067
10 0 59565  53760.000000  0       -986336.092      -6833178.085      -1005825.709
10 0 59565  53820.000000  0      -1082237.794      -6869845.961       -559083.350
10 0 59565  53880.000000  0      -1173773.913      -6876771.746       -109970.215
10 0 59565  53940.000000  0      -1260298.808      -6853967.186        339609.225
10 0 59565  54000.000000  0      -1341188.821      -6801575.921        787748.543
10 0 59565  54060.000000  0      -1415846.108      -6719872.646       1232547.677
10 0 59565  54120.000000  0      -1483702.332      -6609261.638       1672121.217
10 0 59565  54180.000000  0      -1544222.200      -6470274.652       2104606.614
10 0 59565  54240.000000  0      -1596906.821      -6303568.183       2528172.268
10 0 59565  54300.000000  0      -1641296.887      -6109920.156       2941025.423
10 0 59565  54360.000000  0      -1676975.626      -5890226.045       3341419.881
10 0 59565  54420.000000  0      -1703571.487      -5645494.440       3727663.446
10 0 59565  54480.000000  0      -1720760.595      -5376842.107       4098125.062
10 0 59565  54540.000000  0      -1728268.965      -5085488.613       4451241.611
10 0 59565  54600.000000  0      -1725874.472      -4772750.567       4785524.424
10 0 59565  54660.000000  0      -1713408.550      -4440035.443       5099565.465
10 0 59565  54720.000000  0      -1690757.603      -4088834.994       5392043.184
10 0 59565  54780.000000  0      -1657864.111      -3720718.252       5661727.910
10 0 59565  54840.000000  0      -1614727.413      -3337324.285       5907486.743
10 0 59565  54900.000000  0      -1561404.194      -2940354.753       6128288.043
10 0 59565  54960.000000  0      -1498008.674      -2531566.266       6323205.460
10 0 59565  55020.000000  0      -1424712.516      -2112762.627       6491421.566
10 0 59565  55080.000000  0      -1341744.461      -1685786.869       6632231.105
10 0 59565  55140.000000  0      -1249389.682      -1252513.131       6745043.758
10 0 59565  55200.000000  0      -1147988.858       -814838.436       6829386.400
10 0 59565  55260.000000  0      -1037936.968       -374674.483       6884904.873
10 0 59565  55320.000000  0       -919681.786         66060.546       6911365.388
10 0 59565  55380.000000  0       -793722.082        505450.242       6908655.503
10 0 59565  55440.000000  0       -660605.540        941588.229       6876784.591
10 0 59565  55500.000000  0       -520926.401       1372586.323       6815883.818
10 0 59565  55560.000000  0       -375322.863       1796582.612       6726205.693
10 0 59565  55620.000000  0       -224474.211       2211749.449       6608123.122
10 0 59565  55680.000000  0        -69097.718       2616301.232       6462127.979
10 0 59565  55740.000000  0         90054.662       3008502.033       6288829.294
10 0 59565  55800.000000  0        252199.818       3386673.101       6088950.960
10 0 59565  55860.000000  0        416527.209       3749200.113       5863328.935
10 0 59565  55920.000000  0        582202.805       4094540.156       5612908.006
10 0 59565  55980.000000  0        748373.190       4421228.418       5338738.121
10 0 59565  56040.000000  0        914169.850       4727884.626       5041970.273
10 0 59565  56100.000000  0       1078713.592       5013219.149       4723851.857
10 0 59565  56160.000000  0       1241119.033       5276038.606       4385721.604
10 0 59565  56220.000000  0       1400499.159       5515251.096       4029004.229
10 0 59565  56280.000000  0       1555969.997       5729871.070       3655204.775
10 0 59565  56340.000000  0       1706655.582       5919023.980       3265902.436
10 0 59565  56400.000000  0       1851692.764       6081950.148       2862743.598
10 0 59565  56460.000000  0       1990235.785       6218008.016       2447434.929
10 0 59565  56520.000000  0       2121461.050       6326677.083       2021736.168
10 0 59565  56580.000000  0       2244571.845       6407560.154       1587452.452
10 0 59565  56640.000000  0       2358802.868       6460384.895       1146426.470
10 0 59565  56700.000000  0       2463424.638       6485004.849        700530.483
10 0 59565  56760.000000  0       2557747.759       6481399.856        251658.183
10 0 59565  56820.000000  0       2641127.022       6449675.890       -198283.564
10 0 59565  56880.000000  0       2712965.297       6390064.288       -647383.084
10 0 59565  56940.000000  0       2772717.215       6302920.325      -1093732.276
10 0 59565  57000.000000  0       2819892.589       6188721.199      -1535434.964
10 0 59565  57060.000000  0       2854059.552       6048063.444      -1970615.201
10 0 59565  57120.000000  0       2874847.412       5881659.776      -2397425.485
10 0 59565  57180.000000  0       2881949.206       5690335.357      -2814054.849
10 0 59565  57240.000000  0       2875123.904       5475023.502      -3218736.762
10 0 59565  57300.000000  0       2854198.258       5236760.837      -3609756.761
10 0 59565  57360.000000  0       2819068.294       4976682.045      -3985459.756
10 0 59565  57420.000000  0       2769700.455       4696014.215      -4344257.068
10 0 59565  57480.000000  0       2706132.373       4396070.761      -4684633.138
10 0 59565  57540.000000  0       2628473.275       4078244.983      -5005151.825
99
